CCSDS_OEM_VERS = 1.0
CREATION_DATE  = 2017-05-11T11:34:24
ORIGINATOR     = GMAT USER

META_START
OBJECT_NAME          = MOPSSat_alt_35785_km_RAAN_180_056
OBJECT_ID            = SatId
CENTER_NAME          = Earth
REF_FRAME            = EME2000
TIME_SYSTEM          = UTC
START_TIME           = 2017-01-01T00:00:00.000
USEABLE_START_TIME   = 2017-01-01T00:00:00.000
USEABLE_STOP_TIME    = 2017-01-02T00:00:00.000
STOP_TIME            = 2017-01-02T00:00:00.000
INTERPOLATION        = Lagrange
INTERPOLATION_DEGREE = 7 
META_STOP


                                                                                   

2017-01-01T01:40:50.000  -3.812165276382877e+04  -1.800566693707791e+04   2.861335261618443e-02   1.313188365393106e+00  -2.780424471387937e+00   7.718433325836504e-06
2017-01-01T01:41:00.000  -3.810851074235950e+04  -1.803346639007331e+04   2.869055548874987e-02   1.315215833164370e+00  -2.779465926140513e+00   7.722135953969802e-06
2017-01-01T01:41:10.000  -3.809534844980195e+04  -1.806125625003043e+04   2.876779522630677e-02   1.317242601270179e+00  -2.778505902500943e+00   7.725806430602788e-06
2017-01-01T01:41:20.000  -3.808216589309739e+04  -1.808903650229576e+04   2.884507150765904e-02   1.319268668641741e+00  -2.777544400975652e+00   7.729444748366992e-06
2017-01-01T01:41:30.000  -3.806896307919893e+04  -1.811680713221855e+04   2.892238401153059e-02   1.321294034210463e+00  -2.776581422071925e+00   7.733050899917075e-06
2017-01-01T01:41:40.000  -3.805574001507642e+04  -1.814456812514094e+04   2.899973241653733e-02   1.323318696907233e+00  -2.775616966298266e+00   7.736624877935249e-06
2017-01-01T01:41:50.000  -3.804249670772826e+04  -1.817231946636963e+04   2.907711640111271e-02   1.325342655660361e+00  -2.774651034165261e+00   7.740166675110983e-06
2017-01-01T01:42:00.000  -3.802923316419362e+04  -1.820006114115454e+04   2.915453564344338e-02   1.327365909394006e+00  -2.773683626186481e+00   7.743676284155211e-06
2017-01-01T01:42:10.000  -3.801594939151274e+04  -1.822779313477000e+04   2.923198982169834e-02   1.329388457034114e+00  -2.772714742875559e+00   7.747153697804747e-06
2017-01-01T01:42:20.000  -3.800264539690398e+04  -1.825551543215040e+04   2.930947861300504e-02   1.331410297481838e+00  -2.771744384759131e+00   7.750598908792582e-06
2017-01-01T01:42:30.000  -3.798932118754974e+04  -1.828322801833200e+04   2.938700169468989e-02   1.333431429645760e+00  -2.770772552361200e+00   7.754011909887717e-06
2017-01-01T01:42:40.000  -3.797597677067583e+04  -1.831093087828848e+04   2.946455874381769e-02   1.335451852429900e+00  -2.769799246208945e+00   7.757392693879278e-06
2017-01-01T01:42:50.000  -3.796261215324471e+04  -1.833862399756846e+04   2.954214943897554e-02   1.337471564780204e+00  -2.768824466810335e+00   7.760741253644975e-06
2017-01-01T01:43:00.000  -3.794922734226133e+04  -1.836630736165944e+04   2.961977345849436e-02   1.339490565638170e+00  -2.767848214676432e+00   7.764057582082015e-06
2017-01-01T01:43:10.000  -3.793582234470416e+04  -1.839398095613228e+04   2.969743048085149e-02   1.341508853951366e+00  -2.766870490316375e+00   7.767341672122619e-06
2017-01-01T01:43:20.000  -3.792239716769601e+04  -1.842164476628131e+04   2.977512018366979e-02   1.343526428647200e+00  -2.765891294249823e+00   7.770593516693022e-06
2017-01-01T01:43:30.000  -3.790895181837805e+04  -1.844929877739187e+04   2.985284224445994e-02   1.345543288652420e+00  -2.764910626997776e+00   7.773813108744076e-06
2017-01-01T01:43:40.000  -3.789548630390858e+04  -1.847694297473977e+04   2.993059634062252e-02   1.347559432893082e+00  -2.763928489082489e+00   7.777000441250909e-06
2017-01-01T01:43:50.000  -3.788200063159526e+04  -1.850457734332680e+04   3.000838214869635e-02   1.349574860275254e+00  -2.762944881037107e+00   7.780155507184197e-06
2017-01-01T01:44:00.000  -3.786849480871822e+04  -1.853220186823749e+04   3.008619934536983e-02   1.351589569711043e+00  -2.761959803392763e+00   7.783278299549331e-06
2017-01-01T01:44:10.000  -3.785496884259926e+04  -1.855981653449847e+04   3.016404760708339e-02   1.353603560108330e+00  -2.760973256683636e+00   7.786368811371527e-06
2017-01-01T01:44:20.000  -3.784142274029689e+04  -1.858742132770160e+04   3.024192661178649e-02   1.355616830416221e+00  -2.759985241424694e+00   7.789427035763207e-06
2017-01-01T01:44:30.000  -3.782785650891114e+04  -1.861501623338075e+04   3.031983603718143e-02   1.357629379579594e+00  -2.758995758133943e+00   7.792452965857198e-06
2017-01-01T01:44:40.000  -3.781427015551506e+04  -1.864260123715290e+04   3.039777556112023e-02   1.359641206549385e+00  -2.758004807327413e+00   7.795446594820956e-06
2017-01-01T01:44:50.000  -3.780066368732785e+04  -1.867017632435945e+04   3.047574486059965e-02   1.361652310256435e+00  -2.757012389531796e+00   7.798407915822338e-06
2017-01-01T01:45:00.000  -3.778703711158707e+04  -1.869774148033297e+04   3.055374361250658e-02   1.363662689630941e+00  -2.756018505275125e+00   7.801336922053035e-06
2017-01-01T01:45:10.000  -3.777339043554758e+04  -1.872529669039659e+04   3.063177149361999e-02   1.365672343602409e+00  -2.755023155086691e+00   7.804233606730961e-06
2017-01-01T01:45:20.000  -3.775972366661533e+04  -1.875284193960039e+04   3.070982817985698e-02   1.367681271080434e+00  -2.754026339506810e+00   7.807097963062602e-06
2017-01-01T01:45:30.000  -3.774603681216814e+04  -1.878037721307703e+04   3.078791334728731e-02   1.369689470980635e+00  -2.753028059073744e+00   7.809929984290915e-06
2017-01-01T01:45:40.000  -3.773232987962737e+04  -1.880790249589887e+04   3.086602667172700e-02   1.371696942214229e+00  -2.752028314328926e+00   7.812729663675964e-06
2017-01-01T01:45:50.000  -3.771860287614333e+04  -1.883541777370949e+04   3.094416783053088e-02   1.373703683734097e+00  -2.751027105794028e+00   7.815496994575242e-06
2017-01-01T01:46:00.000  -3.770485580891050e+04  -1.886292303209050e+04   3.102233650079627e-02   1.375709694488598e+00  -2.750024433993937e+00   7.818231970362895e-06
2017-01-01T01:46:10.000  -3.769108868508627e+04  -1.889041825672506e+04   3.110053235982676e-02   1.377714973433501e+00  -2.749020299450837e+00   7.820934584452621e-06
2017-01-01T01:46:20.000  -3.767730151200858e+04  -1.891790343295775e+04   3.117875508388698e-02   1.379719519499879e+00  -2.748014702700081e+00   7.823604830234664e-06
2017-01-01T01:46:30.000  -3.766349429701669e+04  -1.894537854615802e+04   3.125700434923018e-02   1.381723331620620e+00  -2.747007644277117e+00   7.826242701131256e-06
2017-01-01T01:46:40.000  -3.764966704749243e+04  -1.897284358163630e+04   3.133527983186171e-02   1.383726408724310e+00  -2.745999124720502e+00   7.828848190581549e-06
2017-01-01T01:46:50.000  -3.763581977084543e+04  -1.900029852467718e+04   3.141358120762944e-02   1.385728749737644e+00  -2.744989144570813e+00   7.831421292063228e-06
2017-01-01T01:47:00.000  -3.762195247450417e+04  -1.902774336055411e+04   3.149190815226947e-02   1.387730353586512e+00  -2.743977704370008e+00   7.833961999075952e-06
2017-01-01T01:47:10.000  -3.760806516589937e+04  -1.905517807456233e+04   3.157026034150003e-02   1.389731219198391e+00  -2.742964804660207e+00   7.836470305150292e-06
2017-01-01T01:47:20.000  -3.759415785245750e+04  -1.908260265203479e+04   3.164863745106421e-02   1.391731345503507e+00  -2.741950445983218e+00   7.838946203835022e-06
2017-01-01T01:47:30.000  -3.758023054158284e+04  -1.911001707837374e+04   3.172703915682430e-02   1.393730731437141e+00  -2.740934628879234e+00   7.841389688713717e-06
2017-01-01T01:47:40.000  -3.756628324070048e+04  -1.913742133896775e+04   3.180546513452297e-02   1.395729375933578e+00  -2.739917353889962e+00   7.843800753392550e-06
2017-01-01T01:47:50.000  -3.755231595707056e+04  -1.916481541955181e+04   3.188391506081949e-02   1.397727277952368e+00  -2.738898621545081e+00   7.846179391544585e-06
2017-01-01T01:48:00.000  -3.753832869801284e+04  -1.919219930577074e+04   3.196238861203526e-02   1.399724436446482e+00  -2.737878432378616e+00   7.848525596858769e-06
2017-01-01T01:48:10.000  -3.752432147082205e+04  -1.921957298334434e+04   3.204088546462813e-02   1.401720850374365e+00  -2.736856786922769e+00   7.850839363059207e-06
2017-01-01T01:48:20.000  -3.751029428309532e+04  -1.924693643742728e+04   3.211940529335734e-02   1.403716518653240e+00  -2.735833685731794e+00   7.853120683835818e-06
2017-01-01T01:48:30.000  -3.749624714240475e+04  -1.927428965324930e+04   3.219794777311890e-02   1.405711440205811e+00  -2.734809129358124e+00   7.855369552913870e-06
2017-01-01T01:48:40.000  -3.748218005638194e+04  -1.930163261594985e+04   3.227651257847241e-02   1.407705613948193e+00  -2.733783118358530e+00   7.857585964034526e-06
2017-01-01T01:48:50.000  -3.746809303249550e+04  -1.932896531101590e+04   3.235509938489316e-02   1.409699038821850e+00  -2.732755653277893e+00   7.859769911007136e-06
2017-01-01T01:49:00.000  -3.745398607823410e+04  -1.935628772392049e+04   3.243370786773987e-02   1.411691713767225e+00  -2.731726734662560e+00   7.861921387663554e-06
2017-01-01T01:49:10.000  -3.743985920106444e+04  -1.938359984020609e+04   3.251233770249282e-02   1.413683637729831e+00  -2.730696363057277e+00   7.864040387869901e-06
2017-01-01T01:49:20.000  -3.742571240844642e+04  -1.941090164545172e+04   3.259098856466325e-02   1.415674809657845e+00  -2.729664539006283e+00   7.866126905511721e-06
2017-01-01T01:49:30.000  -3.741154570784204e+04  -1.943819312525828e+04   3.266966012974834e-02   1.417665228501036e+00  -2.728631263053987e+00   7.868180934504080e-06
2017-01-01T01:49:40.000  -3.739735910673253e+04  -1.946547426521587e+04   3.274835207313734e-02   1.419654893208391e+00  -2.727596535746185e+00   7.870202468786190e-06
2017-01-01T01:49:50.000  -3.738315261262497e+04  -1.949274505088789e+04   3.282706407006891e-02   1.421643802726946e+00  -2.726560357630571e+00   7.872191502324562e-06
